STARLINK-31100          
1 58714U 24002K   26068.67219712 -.00000334  00000+0  83672-6 0  9992
2 58714  53.1594 229.9438 0001045  90.8021 269.3100 15.30196314122011
BANDWAGON-2 OBJECT D    
1 62380U 24247D   26068.52261193  .00011259  00000+0  40119-3 0  9994
2 62380  44.9954 115.6710 0003488 351.1453   8.9368 15.29076102 67732
